NORAD_CAT_ID,OBJECT_NAME,OBJECT_TYPE,EPOCH,MEAN_MOTION,ECCENTRICITY,INCLINATION,RA_OF_ASC_NODE,ARG_OF_PERICENTER,MEAN_ANOMALY,BSTAR,MEAN_MOTION_DOT,MEAN_MOTION_DDOT,TLE_LINE0,TLE_LINE1,TLE_LINE2,SEMIMAJOR_AXIS,PERIOD,APOGEE,PERIGEE,DECAYED
52674.0,STARLINK-3936,PAYLOAD,2022-09-16 19:53:08,15.08824058,0.0001841,53.2183,94.7571,61.36,298.7577,0.00015029,2.104e-05,0.0,0 STARLINK-3936,1 52674U 22053U   22259.82856866  .00002104  00000-0  15029-3 0  9992,2 52674  53.2183  94.7571 0001841  61.3600 298.7577 15.08824058 19344,6917.929,95.439,541.068,538.521,0.0
52674.0,STARLINK-3936,PAYLOAD,2022-09-16 23:03:54,15.08834654,0.0001524,53.2195,94.1629,48.5111,311.6012,-7.5925e-05,-1.496e-05,0.0,0 STARLINK-3936,1 52674U 22053U   22259.96104582 -.00001496  00000-0 -75925-4 0  9995,2 52674  53.2195  94.1629 0001524  48.5111 311.6012 15.08834654 19361,6917.897,95.438,540.816,538.707,0.0
52674.0,STARLINK-3936,PAYLOAD,2022-09-17 19:43:55,15.08825528,0.0001705,53.2179,90.2969,55.6722,304.4432,-2.0851e-05,-6.2e-06,0.0,0 STARLINK-3936,1 52674U 22053U   22260.82217585 -.00000620  00000-0 -20851-4 0  9996,2 52674  53.2179  90.2969 0001705  55.6722 304.4432 15.08825528 19495,6917.925,95.438,540.969,538.61,0.0
52674.0,STARLINK-3936,PAYLOAD,2022-09-17 22:54:42,15.08826052,0.0001712,53.2178,89.70200000000001,55.2892,304.8261,-1.6157e-05,-5.45e-06,0.0,0 STARLINK-3936,1 52674U 22053U   22260.95465654 -.00000545  00000-0 -16157-4 0  9992,2 52674  53.2178  89.7020 0001712  55.2892 304.8261 15.08826052 19078,6917.9230000000025,95.438,540.972,538.604,0.0
52674.0,STARLINK-3936,PAYLOAD,2022-09-18 13:13:10,15.08821664,0.0001788,53.2176,87.0258,54.6156,305.5003,0.00012376,1.681e-05,0.0,0 STARLINK-3936,1 52674U 22053U   22261.55081831  .00001681  00000-0  12376-3 0  9998,2 52674  53.2176  87.0258 0001788  54.6156 305.5003 15.08821664 19604,6917.936,95.439,541.038,538.565,0.0
52674.0,STARLINK-3936,PAYLOAD,2022-09-18 21:10:06,15.08827175,0.0001817,53.2178,85.5389,55.0007,305.1156,0.0001595,2.25e-05,0.0,0 STARLINK-3936,1 52674U 22053U   22261.88201762  .00002250  00000-0  15950-3 0  9995,2 52674  53.2178  85.5389 0001817  55.0007 305.1156 15.08827175 19650,6917.92,95.438,541.0419999999998,538.528,0.0
52674.0,STARLINK-3936,PAYLOAD,2022-09-18 22:45:29,15.0882771,0.0001821,53.2177,85.2415,54.9984,305.1179,0.00016235,2.296e-05,0.0,0 STARLINK-3936,1 52674U 22053U   22261.94825794  .00002296  00000-0  16235-3 0  9996,2 52674  53.2177  85.2415 0001821  54.9984 305.1179 15.08827710 19226,6917.918000000002,95.438,541.043,538.523,0.0
52674.0,STARLINK-3936,PAYLOAD,2022-09-19 13:03:57,15.088384,0.0001828,53.2179,82.565,55.6881,304.4284,0.00015765,2.222e-05,0.0,0 STARLINK-3936,1 52674U 22053U   22262.54441482  .00002222  00000-0  15765-3 0  9997,2 52674  53.2179  82.5650 0001828  55.6881 304.4284 15.08838400 19317,6917.885,95.438,541.015,538.486,0.0
52674.0,STARLINK-3936,PAYLOAD,2022-09-19 21:00:52,15.08844778,0.0001854,53.2181,81.0781,57.0857,303.0313,0.00019573,2.829e-05,0.0,0 STARLINK-3936,1 52674U 22053U   22262.87560982  .00002829  00000-0  19573-3 0  9994,2 52674  53.2181  81.0781 0001854  57.0857 303.0313 15.08844778 19804,6917.866,95.437,541.013,538.448,0.0
52674.0,STARLINK-3936,PAYLOAD,2022-09-20 11:19:21,15.08843012,0.0001896,53.2183,78.4017,60.1942,299.9238,0.00011134,1.484e-05,0.0,0 STARLINK-3936,1 52674U 22053U   22263.47177251  .00001484  00000-0  11134-3 0  9995,2 52674  53.2183  78.4017 0001896  60.1942 299.9238 15.08843012 19892,6917.871,95.437,541.048,538.425,0.0
52674.0,STARLINK-3936,PAYLOAD,2022-09-21 11:10:07,15.08847689,0.0002003,53.2169,73.9402,69.72800000000001,290.3927,5.204199999999998e-06,-2.05e-06,0.0,0 STARLINK-3936,1 52674U 22053U   22264.46536875 -.00000205  00000-0  52042-5 0  9992,2 52674  53.2169  73.9402 0002003  69.7280 290.3927 15.08847689 19608,6917.857,95.437,541.1080000000002,538.336,0.0
52674.0,STARLINK-3936,PAYLOAD,2022-09-21 20:42:27,15.08842382,0.0001785,53.2198,72.1587,65.1402,294.9776,-6.7086e-05,-1.356e-05,0.0,0 STARLINK-3936,1 52674U 22053U   22264.86281285 -.00001356  00000-0 -67086-4 0  9990,2 52674  53.2198  72.1587 0001785  65.1402 294.9776 15.08842382 19660,6917.873000000001,95.437,540.9730000000002,538.503,0.0
52674.0,STARLINK-3936,PAYLOAD,2022-09-22 04:39:22,15.08841637,0.000129,53.2191,70.6686,59.4262,300.6858,1.4891e-05,-5.1e-07,0.0,0 STARLINK-3936,1 52674U 22053U   22265.19400858 -.00000051  00000-0  14891-4 0  9992,2 52674  53.2191  70.6686 0001290  59.4262 300.6858 15.08841637 20151,6917.875,95.437,540.633,538.8480000000002,0.0
52674.0,STARLINK-3936,PAYLOAD,2022-09-22 17:22:26,15.08847615,0.0001709,53.2186,68.2916,53.2154,306.8995,4.270800000000001e-05,3.92e-06,0.0,0 STARLINK-3936,1 52674U 22053U   22265.72392310  .00000392  00000-0  42708-4 0  9999,2 52674  53.2186  68.2916 0001709  53.2154 306.8995 15.08847615 19791,6917.857,95.437,540.904,538.54,0.0
52674.0,STARLINK-3936,PAYLOAD,2022-09-23 17:13:14,15.08838558,0.000178,53.2182,63.8315,51.5429,308.5723,6.2171e-05,7.01e-06,0.0,0 STARLINK-3936,1 52674U 22053U   22266.71752781  .00000701  00000-0  62171-4 0  9991,2 52674  53.2182  63.8315 0001780  51.5429 308.5723 15.08838558 19947,6917.885,95.438,540.981,538.518,0.0
52674.0,STARLINK-3936,PAYLOAD,2022-09-23 20:24:00,15.08840163,0.0001806,53.2184,63.2372,50.0546,310.0604,7.4062e-05,8.91e-06,0.0,0 STARLINK-3936,1 52674U 22053U   22266.85000669  .00000891  00000-0  74062-4 0  9999,2 52674  53.2184  63.2372 0001806  50.0546 310.0604 15.08840163 20403,6917.88,95.438,540.994,538.496,0.0
52674.0,STARLINK-3936,PAYLOAD,2022-09-24 17:04:01,15.08838971,0.0001673,53.2186,59.3717,51.0046,309.1095,9.1696e-06,-1.42e-06,0.0,0 STARLINK-3936,1 52674U 22053U   22267.71112977 -.00000142  00000-0  91696-5 0  9994,2 52674  53.2186  59.3717 0001673  51.0046 309.1095 15.08838971 20533,6917.884,95.438,540.906,538.591,0.0
52674.0,STARLINK-3936,PAYLOAD,2022-09-24 21:50:10,15.08841679,0.0001789,53.2184,58.4794,52.5639,307.5515,3.2418e-06,-2.37e-06,0.0,0 STARLINK-3936,1 52674U 22053U   22267.90984835 -.00000237  00000-0  32418-5 0  9997,2 52674  53.2184  58.4794 0001789  52.5639 307.5515 15.08841679 20569,6917.875,95.437,540.9780000000002,538.503,0.0
52674.0,STARLINK-3936,PAYLOAD,2022-09-25 16:54:48,15.08841181,0.0001723,53.2191,54.9106,49.7189,310.3954,1.6468e-05,-2.6e-07,0.0,0 STARLINK-3936,1 52674U 22053U   22268.70472838 -.00000026  00000-0  16468-4 0  9993,2 52674  53.2191  54.9106 0001723  49.7189 310.3954 15.08841181 20681,6917.877,95.437,540.934,538.55,0.0
52674.0,STARLINK-3936,PAYLOAD,2022-09-26 02:27:07,15.08839789,0.000178,53.2194,53.1261,49.8046,310.3102,3.0588e-06,-2.39e-06,0.0,0 STARLINK-3936,1 52674U 22053U   22269.10216942 -.00000239  00000-0  30588-5 0  9996,2 52674  53.2194  53.1261 0001780  49.8046 310.3102 15.08839789 20746,6917.880999999999,95.438,540.977,538.515,0.0
52674.0,STARLINK-3936,PAYLOAD,2022-09-26 16:45:35,15.08838764,0.0001786999999999,53.2196,50.4501,48.9537,311.1609,2.4513e-05,1.02e-06,0.0,0 STARLINK-3936,1 52674U 22053U   22269.69833043  .00000102  00000-0  24513-4 0  9995,2 52674  53.2196  50.4501 0001787  48.9537 311.1609 15.08838764 20830,6917.884,95.438,540.985,538.513,0.0
52674.0,STARLINK-3936,PAYLOAD,2022-09-28 11:41:00,15.0884543,0.0001909999999999,53.219,42.4216,47.9691,312.1464,0.00019652,2.841e-05,0.0,0 STARLINK-3936,1 52674U 22053U   22271.48680766  .00002841  00000-0  19652-3 0  9996,2 52674  53.2190  42.4216 0001910  47.9691 312.1464 15.08845430 20665,6917.864000000001,95.437,541.05,538.4069999999998,0.0
52674.0,STARLINK-3936,PAYLOAD,2022-09-28 13:16:23,15.08847869,0.0001879,53.2195,42.1253,50.4014,309.7144,0.00021291,3.103e-05,0.0,0 STARLINK-3936,1 52674U 22053U   22271.55304590  .00003103  00000-0  21291-3 0  9996,2 52674  53.2195  42.1253 0001879  50.4014 309.7144 15.08847869 21116,6917.856,95.437,541.021,538.4209999999998,0.0
52674.0,STARLINK-3936,PAYLOAD,2022-09-28 18:02:33,15.08841368,0.0001984,53.2199,41.2323,38.5612,321.5522,7.2603e-05,8.68e-06,0.0,0 STARLINK-3936,1 52674U 22053U   22271.75177453  .00000868  00000-0  72603-4 0  9993,2 52674  53.2199  41.2323 0001984  38.5612 321.5522 15.08841368 20700,6917.876,95.437,541.114,538.369,0.0
52674.0,STARLINK-3936,PAYLOAD,2022-09-28 19:37:56,15.08842278,0.000194,53.2197,40.9347,40.9493,319.1644,8.0479e-05,9.93e-06,0.0,0 STARLINK-3936,1 52674U 22053U   22271.81801334  .00000993  00000-0  80479-4 0  9991,2 52674  53.2197  40.9347 0001940  40.9493 319.1644 15.08842278 21155,6917.873000000001,95.437,541.08,538.396,0.0
52674.0,STARLINK-3936,PAYLOAD,2022-09-29 11:31:49,15.08820699,0.0001851,53.2191,37.9616,34.2686,325.8425,-5.3242e-05,-1.135e-05,0.0,0 STARLINK-3936,1 52674U 22053U   22272.48043484 -.00001135  00000-0 -53242-4 0  9998,2 52674  53.2191  37.9616 0001851  34.2686 325.8425 15.08820699 20811,6917.939,95.439,541.085,538.524,0.0
52674.0,STARLINK-3936,PAYLOAD,2022-09-29 13:07:12,15.08822307,0.0001929,53.2192,37.6642,42.8843,317.2299,-2.3558e-05,-6.63e-06,0.0,0 STARLINK-3936,1 52674U 22053U   22272.54667469 -.00000663  00000-0 -23558-4 0  9992,2 52674  53.2192  37.6642 0001929  42.8843 317.2299 15.08822307 21266,6917.934,95.439,541.134,538.465,0.0
52674.0,STARLINK-3936,PAYLOAD,2022-09-29 19:28:44,15.08826129,0.0001946,53.2187,36.4751,35.4548,324.6573,-6.1349e-05,-1.264e-05,0.0,0 STARLINK-3936,1 52674U 22053U   22272.81162909 -.00001264  00000-0 -61349-4 0  9999,2 52674  53.2187  36.4751 0001946  35.4548 324.6573 15.08826129 20865,6917.9230000000025,95.438,541.134,538.442,0.0
52674.0,STARLINK-3936,PAYLOAD,2022-09-29 21:04:07,15.08828608,0.0001999,53.2188,36.1778,43.6869,316.4281,-1.5805999999999994e-05,-5.400000000000002e-06,0.0,0 STARLINK-3936,1 52674U 22053U   22272.87786913 -.00000540  00000-0 -15806-4 0  9995,2 52674  53.2188  36.1778 0001999  43.6869 316.4281 15.08828608 21317,6917.915,95.438,541.163,538.3969999999998,0.0
